GEOSCAN 3 (RS92S3)      
1 64893U 25155T   26162.91369492  .00016768  00000+0  49202-3 0  9995
2 64893  97.4529 132.7295 0005940 177.2108 182.9169 15.35221831 80040
INNOSAT 3 (RS92S0)      
1 64894U 25155U   26162.93228627  .00034626  00000+0  77279-3 0  9990
2 64894  97.4477 134.3034 0005617 164.0525 196.0901 15.43461153 80154
KNACKSAT-2              
1 67683U 98067XZ  26162.71234266  .00046941  00000+0  58268-3 0  9993
2 67683  51.6308 322.0071 0009845 191.1847 168.8928 15.59478995 19427
