OBJECT_NAME,OBJECT_ID,EPOCH,MEAN_MOTION,ECCENTRICITY,INCLINATION,RA_OF_ASC_NODE,ARG_OF_PERICENTER,MEAN_ANOMALY,EPHEMERIS_TYPE,CLASSIFICATION_TYPE,NORAD_CAT_ID,ELEMENT_SET_NO,REV_AT_EPOCH,BSTAR,MEAN_MOTION_DOT,MEAN_MOTION_DDOT
GEOSCAN 3 (RS92S3),2025-155T,2026-06-11T21:55:43.241088,15.35221831,.00059405,97.4529,132.7295,177.2108,182.9169,0,U,64893,999,8004,.49201716E-3,.16768E-3,0
INNOSAT 3 (RS92S0),2025-155U,2026-06-11T22:22:29.533728,15.43461153,.00056177,97.4477,134.3034,164.0525,196.0901,0,U,64894,999,8015,.77279403E-3,.34626E-3,0
KNACKSAT-2,1998-067XZ,2026-06-11T17:05:46.405824,15.59478995,.00098455,51.6308,322.0071,191.1847,168.8928,0,U,67683,999,1942,.58268258E-3,.46941E-3,0
